{
    "links": {
        "self": "http://www.neowsapp.com/rest/v1/neo/3837645?api_key=iIulBulltgU6a56xZRHN4H3l9WmuAYTsLGpBGhQ2"
    },
    "id": "3837645",
    "neo_reference_id": "3837645",
    "name": "(2019 AZ3)",
    "designation": "2019 AZ3",
    "nasa_jpl_url": "http://ssd.jpl.nasa.gov/sbdb.cgi?sstr=3837645",
    "absolute_magnitude_h": 24.2,
    "estimated_diameter": {
        "kilometers": {
            "estimated_diameter_min": 0.0384197891,
            "estimated_diameter_max": 0.0859092601
        },
        "meters": {
            "estimated_diameter_min": 38.4197891064,
            "estimated_diameter_max": 85.9092601232
        },
        "miles": {
            "estimated_diameter_min": 0.0238729428,
            "estimated_diameter_max": 0.0533815229
        },
        "feet": {
            "estimated_diameter_min": 126.0491808919,
            "estimated_diameter_max": 281.8545369825
        }
    },
    "is_potentially_hazardous_asteroid": false,
    "close_approach_data": [
        {
            "close_approach_date": "2018-12-31",
            "close_approach_date_full": "2018-Dec-31 09:56",
            "epoch_date_close_approach": 1546250160000,
            "relative_velocity": {
                "kilometers_per_second": "12.0470041788",
                "kilometers_per_hour": "43369.2150435821",
                "miles_per_hour": "26947.9436474969"
            },
            "miss_distance": {
                "astronomical": "0.0692005636",
                "lunar": "26.9190192404",
                "kilometers": "10352256.917359532",
                "miles": "6432594.1650922616"
            },
            "orbiting_body": "Earth"
        }
    ],
    "orbital_data": {
        "orbit_id": "5",
        "orbit_determination_date": "2019-02-11 07:08:56",
        "first_observation_date": "2019-01-02",
        "last_observation_date": "2019-01-13",
        "data_arc_in_days": 11,
        "observations_used": 34,
        "orbit_uncertainty": "8",
        "minimum_orbit_intersection": ".0488902",
        "jupiter_tisserand_invariant": "4.101",
        "epoch_osculation": "2458488.5",
        "eccentricity": ".3872273997752669",
        "semi_major_axis": "1.671278493767795",
        "inclination": "19.03912082293576",
        "ascending_node_longitude": "277.7757088478181",
        "orbital_period": "789.1719924894189",
        "perihelion_distance": "1.024113668325767",
        "perihelion_argument": "165.4588334127114",
        "aphelion_distance": "2.318443319209822",
        "perihelion_time": "2458471.957392519206",
        "mean_anomaly": "7.546312780690438",
        "mean_motion": ".4561743237546875",
        "equinox": "J2000",
        "orbit_class": {
            "orbit_class_type": "AMO",
            "orbit_class_description": "Near-Earth asteroid orbits similar to that of 1221 Amor",
            "orbit_class_range": "1.017 AU < q (perihelion) < 1.3 AU"
        }
    },
    "is_sentry_object": false
}